[{"OBJECT_NAME":"SHIJIAN-26 (SJ-26)","OBJECT_ID":"2025-115A","EPOCH":"2026-03-09T23:52:58.004256","MEAN_MOTION":15.22558479,"ECCENTRICITY":0.00187049,"INCLINATION":97.4605,"RA_OF_ASC_NODE":148.1925,"ARG_OF_PERICENTER":345.0182,"MEAN_ANOMALY":15.0498,"EPHEMERIS_TYPE":0,"CLASSIFICATION_TYPE":"U","NORAD_CAT_ID":64199,"ELEMENT_SET_NO":999,"REV_AT_EPOCH":4334,"BSTAR":0.00030941368,"MEAN_MOTION_DOT":7.145e-5,"MEAN_MOTION_DDOT":0},{"OBJECT_NAME":"CO3D 3","OBJECT_ID":"2025-156B","EPOCH":"2026-03-09T20:39:54.878112","MEAN_MOTION":15.20200878,"ECCENTRICITY":0.00015298,"INCLINATION":97.4328,"RA_OF_ASC_NODE":148.9798,"ARG_OF_PERICENTER":138.8545,"MEAN_ANOMALY":221.2806,"EPHEMERIS_TYPE":0,"CLASSIFICATION_TYPE":"U","NORAD_CAT_ID":64900,"ELEMENT_SET_NO":999,"REV_AT_EPOCH":3444,"BSTAR":0.00013866013,"MEAN_MOTION_DOT":2.935e-5,"MEAN_MOTION_DDOT":0}]
